ORBCOMM FM33            
1 25983U 99065D   24193.44342685  .00001465  00000+0  52719-3 0  9993
2 25983  45.0276 176.5733 0006573 153.0117 207.1075 14.37923179286985
ORBCOMM FM36            
1 25984U 99065E   24193.50395373  .00001286  00000+0  48853-3 0  9998
2 25984  45.0396 262.8423 0002678 341.0737  19.0011 14.35848651286005
ORBCOMM FM35            
1 25985U 99065F   24193.56572416  .00000954  00000+0  37849-3 0  9994
2 25985  45.0398 265.4174 0002812 174.4631 185.6248 14.35356610285810
ORBCOMM FM34            
1 25986U 99065G   24193.46779025  .00001014  00000+0  39932-3 0  9992
2 25986  45.0392 266.4257 0001366  78.3136 281.7865 14.35333522285914
ORBCOMM FM38            
1 33060U 08031A   24193.29953055  .00002371  00000+0  35431-3 0  9992
2 33060  48.4403 135.9669 0005607  16.2631 343.8462 14.77934435864266
ORBCOMM FM41            
1 33061U 08031B   24193.38372723  .00002696  00000+0  40143-3 0  9996
2 33061  48.4436 142.3357 0004878   1.7370 142.2959 14.77657663863779
ORBCOMM FM29            
1 33062U 08031C   24193.37374816  .00002571  00000+0  38450-3 0  9991
2 33062  48.4387 150.4183 0006769   0.5742 139.0261 14.77604899863686
ORBCOMM FM39            
1 33063U 08031D   24193.42367043  .00002253  00000+0  34881-3 0  9993
2 33063  48.4394 171.1796 0007896 336.0807  23.9739 14.76552751863382
